NORAD_CAT_ID,OBJECT_NAME,OBJECT_TYPE,EPOCH,MEAN_MOTION,ECCENTRICITY,INCLINATION,RA_OF_ASC_NODE,ARG_OF_PERICENTER,MEAN_ANOMALY,BSTAR,MEAN_MOTION_DOT,MEAN_MOTION_DDOT,TLE_LINE0,TLE_LINE1,TLE_LINE2,SEMIMAJOR_AXIS,PERIOD,APOGEE,PERIGEE,DECAYED
54088.0,STARLINK-5153,PAYLOAD,2023-09-02 10:00:33,15.08835194,0.0001261,53.215,140.9991,80.2471,279.8664,4.0503e-05,3.57e-06,0.0,0 STARLINK-5153,1 54088U 22136AP  23245.41705039  .00000357  00000-0  40503-4 0  9995,2 54088  53.2150 140.9991 0001261  80.2471 279.8664 15.08835194 48679,6917.895,95.438,540.632,538.888,0.0
54088.0,STARLINK-5153,PAYLOAD,2023-09-02 17:57:28,15.08837066,0.0001267,53.2157,139.5128,86.2856,273.8281,-2.7719e-05,-7.29e-06,0.0,0 STARLINK-5153,1 54088U 22136AP  23245.74825200 -.00000729  00000-0 -27719-4 0  9993,2 54088  53.2157 139.5128 0001267  86.2856 273.8281 15.08837066 48254,6917.889,95.438,540.631,538.878,0.0
54088.0,STARLINK-5153,PAYLOAD,2023-09-03 01:54:24,15.08842612,0.0001312,53.2167,138.0278,90.992,269.1223,2.9735e-05,1.85e-06,0.0,0 STARLINK-5153,1 54088U 22136AP  23246.07944637  .00000185  00000-0  29735-4 0  9990,2 54088  53.2167 138.0278 0001312  90.9920 269.1223 15.08842612 48774,6917.872,95.437,540.645,538.83,0.0
54088.0,STARLINK-5153,PAYLOAD,2023-09-03 09:51:20,15.08838491,0.0001295,53.216,136.5401,88.9979,271.1161,-1.0487e-05,-4.55e-06,0.0,0 STARLINK-5153,1 54088U 22136AP  23246.41065044 -.00000455  00000-0 -10487-4 0  9990,2 54088  53.2160 136.5401 0001295  88.9979 271.1161 15.08838491 48357,6917.885,95.438,540.646,538.854,0.0
54088.0,STARLINK-5153,PAYLOAD,2023-09-04 09:42:07,15.08850093,0.0001629,53.2193,132.0784,87.0101,273.1078,-0.00016149,-2.858e-05,0.0,0 STARLINK-5153,1 54088U 22136AP  23247.40424911 -.00002858  00000-0 -16149-3 0  9991,2 54088  53.2193 132.0784 0001629  87.0101 273.1078 15.08850093 48504,6917.85,95.437,540.841,538.588,0.0
54088.0,STARLINK-5153,PAYLOAD,2023-09-05 01:35:58,15.08838523,0.0001513,53.2185,129.1056,89.1766,270.94,1.7924e-05,-3e-08,0.0,0 STARLINK-5153,1 54088U 22136AP  23248.06665501 -.00000003  00000-0  17924-4 0  9998,2 54088  53.2185 129.1056 0001513  89.1766 270.9400 15.08838523 49077,6917.885,95.438,540.797,538.703,0.0
54088.0,STARLINK-5153,PAYLOAD,2023-09-06 01:26:44,15.08850491,0.0001248,53.2168,124.6432,96.202,263.9114,0.00014811,2.071e-05,0.0,0 STARLINK-5153,1 54088U 22136AP  23249.06024161  .00002071  00000-0  14811-3 0  9997,2 54088  53.2168 124.6432 0001248  96.2020 263.9114 15.08850491 49222,6917.848,95.437,540.577,538.85,0.0
54088.0,STARLINK-5153,PAYLOAD,2023-09-06 22:06:46,15.0884715,0.0001341,53.2168,120.7798,90.0938,270.0207,4.5317e-05,4.34e-06,0.0,0 STARLINK-5153,1 54088U 22136AP  23249.92136622  .00000434  00000-0  45317-4 0  9995,2 54088  53.2168 120.7798 0001341  90.0938 270.0207 15.08847150 48889,6917.859,95.437,540.651,538.796,0.0
54088.0,STARLINK-5153,PAYLOAD,2023-09-07 01:17:32,15.08848002,0.0001244,53.2167,120.1843,90.5269,269.5866,5.3531e-05,5.64e-06,0.0,0 STARLINK-5153,1 54088U 22136AP  23250.05384469  .00000564  00000-0  53531-4 0  9996,2 54088  53.2167 120.1843 0001244  90.5269 269.5866 15.08848002 49373,6917.856,95.437,540.582,538.86,0.0
54088.0,STARLINK-5153,PAYLOAD,2023-09-07 23:32:57,15.08811811,0.0001494,53.2152,116.0199,85.3317,274.7846,0.00036949,5.593e-05,0.0,0 STARLINK-5153,1 54088U 22136AP  23250.98121550  .00005593  00000-0  36949-3 0  9998,2 54088  53.2152 116.0199 0001494  85.3317 274.7846 15.08811811 49518,6917.967,95.439,540.865,538.798,0.0
54088.0,STARLINK-5153,PAYLOAD,2023-09-08 18:37:34,15.08842748,0.0001345,53.2172,112.4529,91.6936,268.4211,-3.1773e-05,-7.94e-06,0.0,0 STARLINK-5153,1 54088U 22136AP  23251.77609134 -.00000794  00000-0 -31773-4 0  9996,2 54088  53.2172 112.4529 0001345  91.6936 268.4211 15.08842748 49631,6917.872,95.437,540.667,538.807,0.0
54088.0,STARLINK-5153,PAYLOAD,2023-09-08 21:48:20,15.08851112,0.0001347,53.2173,111.8597,97.3821,262.7324,-0.00011589,-2.132e-05,0.0,0 STARLINK-5153,1 54088U 22136AP  23251.90856904 -.00002132  00000-0 -11589-3 0  9990,2 54088  53.2173 111.8597 0001347  97.3821 262.7324 15.08851112 49185,6917.846,95.437,540.643,538.78,0.0
54088.0,STARLINK-5153,PAYLOAD,2023-09-09 00:59:07,15.08824731,0.0001465,53.2178,111.2629,85.2661,274.8498,0.00025952,3.843e-05,0.0,0 STARLINK-5153,1 54088U 22136AP  23252.04105405  .00003843  00000-0  25952-3 0  9996,2 54088  53.2178 111.2629 0001465  85.2661 274.8498 15.08824731 49676,6917.927,95.439,540.806,538.779,0.0
54088.0,STARLINK-5153,PAYLOAD,2023-09-09 07:20:39,15.08831069,0.0001454,53.2179,110.0732,87.2223,272.8935,8.1949e-05,1.016e-05,0.0,0 STARLINK-5153,1 54088U 22136AP  23252.30601658  .00001016  00000-0  81949-4 0  9995,2 54088  53.2179 110.0732 0001454  87.2223 272.8935 15.08831069 49242,6917.908,95.438,540.779,538.767,0.0
54088.0,STARLINK-5153,PAYLOAD,2023-09-10 13:32:59,15.08837607,0.0001322,53.2169,104.4245,89.606,270.5083,4.7763e-05,4.72e-06,0.0,0 STARLINK-5153,1 54088U 22136AP  23253.56457883  .00000472  00000-0  47763-4 0  9994,2 54088  53.2169 104.4245 0001322  89.6060 270.5083 15.08837607 49430,6917.888,95.438,540.667,538.838,0.0
54088.0,STARLINK-5153,PAYLOAD,2023-09-10 19:54:32,15.0883898,0.0001326,53.2169,103.2352,94.6409,265.4734,5.6217e-05,6.07e-06,0.0,0 STARLINK-5153,1 54088U 22136AP  23253.82953830  .00000607  00000-0  56217-4 0  9990,2 54088  53.2169 103.2352 0001326  94.6409 265.4734 15.08838980 49940,6917.884,95.438,540.666,538.831,0.0
54088.0,STARLINK-5153,PAYLOAD,2023-09-11 13:23:46,15.08838791,0.0001311,53.2168,99.964,85.6477,274.4665,0.00011754,1.583e-05,0.0,0 STARLINK-5153,1 54088U 22136AP  23254.55817823  .00001583  00000-0  11754-3 0  9992,2 54088  53.2168  99.9640 0001311  85.6477 274.4665 15.08838791 49582,6917.884,95.438,540.656,538.842,0.0
54088.0,STARLINK-5153,PAYLOAD,2023-09-11 22:56:04,15.08847816,0.0001375,53.2172,98.1798,84.9762,275.1387,0.00013689,1.892e-05,0.0,0 STARLINK-5153,1 54088U 22136AP  23254.95561252  .00001892  00000-0  13689-3 0  9990,2 54088  53.2172  98.1798 0001375  84.9762 275.1387 15.08847816 50119,6917.856,95.437,540.673,538.77,0.0
54088.0,STARLINK-5153,PAYLOAD,2023-09-12 13:14:33,15.08840281,0.0001382,53.2172,95.5037,87.4786,272.6364,5.2626e-05,5.5e-06,0.0,0 STARLINK-5153,1 54088U 22136AP  23255.55178016  .00000550  00000-0  52626-4 0  9994,2 54088  53.2172  95.5037 0001382  87.4786 272.6364 15.08840281 49730,6917.88,95.438,540.701,538.788,0.0
54088.0,STARLINK-5153,PAYLOAD,2023-09-12 18:00:43,15.08839019,0.0001453,53.2175,94.6123,84.973,275.1428,4.8011e-05,4.76e-06,0.0,0 STARLINK-5153,1 54088U 22136AP  23255.75050094  .00000476  00000-0  48011-4 0  9991,2 54088  53.2175  94.6123 0001453  84.9730 275.1428 15.08839019 50232,6917.883,95.438,540.754,538.743,0.0
54088.0,STARLINK-5153,PAYLOAD,2023-09-12 19:36:06,15.08843103,0.0001412,53.2171,94.3145,88.3071,271.8083,7.8054e-05,9.55e-06,0.0,0 STARLINK-5153,1 54088U 22136AP  23255.81673771  .00000955  00000-0  78054-4 0  9993,2 54088  53.2171  94.3145 0001412  88.3071 271.8083 15.08843103 49776,6917.871,95.437,540.713,538.759,0.0
54088.0,STARLINK-5153,PAYLOAD,2023-09-12 21:11:29,15.08845467,0.0001392,53.2171,94.0169,90.1436,269.9716,9.4695e-05,1.22e-05,0.0,0 STARLINK-5153,1 54088U 22136AP  23255.88297575  .00001220  00000-0  94695-4 0  9999,2 54088  53.2171  94.0169 0001392  90.1436 269.9716 15.08845467 50253,6917.864,95.437,540.692,538.766,0.0
54088.0,STARLINK-5153,PAYLOAD,2023-09-13 13:05:20,15.08849184,0.0001474,53.2174,91.0431,87.2141,272.9019,0.00011084,1.477e-05,0.0,0 STARLINK-5153,1 54088U 22136AP  23256.54537154  .00001477  00000-0  11084-3 0  9997,2 54088  53.2174  91.0431 0001474  87.2141 272.9019 15.08849184 49883,6917.852,95.437,540.737,538.698,0.0
54088.0,STARLINK-5153,PAYLOAD,2023-09-13 19:26:52,15.08852136,0.0001544,53.217,89.8537,91.5906,268.5263,0.00017342,2.474e-05,0.0,0 STARLINK-5153,1 54088U 22136AP  23256.81033031  .00002474  00000-0  17342-3 0  9993,2 54088  53.2170  89.8537 0001544  91.5906 268.5263 15.08852136 49924,6917.843,95.437,540.776,538.64,0.0
54088.0,STARLINK-5153,PAYLOAD,2023-09-13 21:02:15,15.08853346,0.0001397,53.2161,89.5558,87.918,272.1972,0.00019368,2.797e-05,0.0,0 STARLINK-5153,1 54088U 22136AP  23256.87656932  .00002797  00000-0  19368-3 0  9998,2 54088  53.2161  89.5558 0001397  87.9180 272.1972 15.08853346 49936,6917.84,95.437,540.671,538.738,0.0
54088.0,STARLINK-5153,PAYLOAD,2023-09-14 16:06:53,15.0883903,0.0001551,53.2175,85.9827,117.7308,242.3841,-3.4251e-05,-8.33e-06,0.0,0 STARLINK-5153,1 54088U 22136AP  23257.67145681 -.00000833  00000-0 -34251-4 0  9991,2 54088  53.2175  85.9827 0001551 117.7308 242.3841 15.08839030 50521,6917.883,95.438,540.821,538.675,0.0
54088.0,STARLINK-5153,PAYLOAD,2023-09-14 19:17:40,15.08834428,0.000128,53.2162,85.3926,91.832,268.2819,-4.5178e-05,-1.007e-05,0.0,0 STARLINK-5153,1 54088U 22136AP  23257.80393990 -.00001007  00000-0 -45178-4 0  9998,2 54088  53.2162  85.3926 0001280  91.8320 268.2819 15.08834428 50074,6917.897,95.438,540.648,538.877,0.0
54088.0,STARLINK-5153,PAYLOAD,2023-09-15 12:46:54,15.088392,0.0001184,53.2163,82.121,89.3884,270.7244,-1.9755e-05,-6.02e-06,0.0,0 STARLINK-5153,1 54088U 22136AP  23258.53257908 -.00000602  00000-0 -19755-4 0  9999,2 54088  53.2163  82.1210 0001184  89.3884 270.7244 15.08839200 50181,6917.883,95.438,540.567,538.929,0.0
54088.0,STARLINK-5153,PAYLOAD,2023-09-15 17:33:04,15.08843292,0.0001219,53.2158,81.2292,90.1268,269.9864,6.5134e-05,7.49e-06,0.0,0 STARLINK-5153,1 54088U 22136AP  23258.73129717  .00000749  00000-0  65134-4 0  9999,2 54088  53.2158  81.2292 0001219  90.1268 269.9864 15.08843292 50689,6917.87,95.437,540.579,538.892,0.0
54088.0,STARLINK-5153,PAYLOAD,2023-09-16 12:37:42,15.08833395,0.0001285,53.2163,77.6615,93.7812,266.3327,0.00012076,1.634e-05,0.0,0 STARLINK-5153,1 54088U 22136AP  23259.52618388  .00001634  00000-0  12076-3 0  9994,2 54088  53.2163  77.6615 0001285  93.7812 266.3327 15.08833395 50330,6917.901,95.438,540.655,538.877,0.0
